1 43013U 17073A   26129.93871300  .00000043  00000+0  41509-4 0  9999
2 43013  98.7756  69.7447 0001832  54.3284 305.8062 14.19550463439044
